<?xml version="1.0" encoding="UTF-8"?>
<gpx version="1.1" creator="Truck Route Simulator"
     xmlns="http://www.topografix.com/GPX/1/1"
     xmlns:xsi="http://www.w3.org/2001/XMLSchema-instance"
     xsi:schemaLocation="http://www.topografix.com/GPX/1/1 http://www.topografix.com/GPX/1/1/gpx.xsd">
  <trk>
    <name>Philadelphia_to_Baltimore</name>
    <trkseg>
      <trkpt lat="39.952602" lon="-75.165211"></trkpt>
      <trkpt lat="39.94484328069578" lon="-75.16530455797823"></trkpt>
      <trkpt lat="39.93634603917666" lon="-75.16716058518011"></trkpt>
      <trkpt lat="39.92784695310357" lon="-75.16900274805826"></trkpt>
      <trkpt lat="39.91935046857186" lon="-75.17086605164968"></trkpt>
      <trkpt lat="39.91090147554182" lon="-75.1729480271136"></trkpt>
      <trkpt lat="39.902392108277965" lon="-75.17462174641756"></trkpt>
      <trkpt lat="39.89830080845282" lon="-75.18302094206801"></trkpt>
      <trkpt lat="39.89537831602885" lon="-75.19343624876"></trkpt>
      <trkpt lat="39.88949221070227" lon="-75.20160198469219"></trkpt>
      <trkpt lat="39.886032186546046" lon="-75.21131632723268"></trkpt>
      <trkpt lat="39.89052775142322" lon="-75.22067712725062"></trkpt>
      <trkpt lat="39.89333087076608" lon="-75.23094436485103"></trkpt>
      <trkpt lat="39.88956006564128" lon="-75.24065899904264"></trkpt>
      <trkpt lat="39.88197334761721" lon="-75.24589717073816"></trkpt>
      <trkpt lat="39.87703833115089" lon="-75.25478084932892"></trkpt>
      <trkpt lat="39.8764219623706" lon="-75.26585935205226"></trkpt>
      <trkpt lat="39.87610280091687" lon="-75.27699101893589"></trkpt>
      <trkpt lat="39.87525117955357" lon="-75.28790819501698"></trkpt>
      <trkpt lat="39.87195257738986" lon="-75.29823973257709"></trkpt>
      <trkpt lat="39.86880246581041" lon="-75.30863771835422"></trkpt>
      <trkpt lat="39.870922729688495" lon="-75.3191924240941"></trkpt>
      <trkpt lat="39.869010242059694" lon="-75.32974400812026"></trkpt>
      <trkpt lat="39.86824210569812" lon="-75.3403972796109"></trkpt>
      <trkpt lat="39.863575818436935" lon="-75.34941667702375"></trkpt>
      <trkpt lat="39.858227916773316" lon="-75.35800725083688"></trkpt>
      <trkpt lat="39.85425661734881" lon="-75.36792974215396"></trkpt>
      <trkpt lat="39.850303389587246" lon="-75.37786356181883"></trkpt>
      <trkpt lat="39.84696956705111" lon="-75.3881667604067"></trkpt>
      <trkpt lat="39.84289350591836" lon="-75.39799756145254"></trkpt>
      <trkpt lat="39.84015118837005" lon="-75.40840145425408"></trkpt>
      <trkpt lat="39.836340202994684" lon="-75.41836859681722"></trkpt>
      <trkpt lat="39.83182327392455" lon="-75.42777927293709"></trkpt>
      <trkpt lat="39.82617311811502" lon="-75.43621704058009"></trkpt>
      <trkpt lat="39.821778881727354" lon="-75.44573506876557"></trkpt>
      <trkpt lat="39.81558759438797" lon="-75.45336468193577"></trkpt>
      <trkpt lat="39.80946586607262" lon="-75.46105406552093"></trkpt>
      <trkpt lat="39.80376853934132" lon="-75.4689824736657"></trkpt>
      <trkpt lat="39.80343193140641" lon="-75.47958360789514"></trkpt>
      <trkpt lat="39.79718104400246" lon="-75.48708589801163"></trkpt>
      <trkpt lat="39.78996257574406" lon="-75.4930822859874"></trkpt>
      <trkpt lat="39.78367775867668" lon="-75.50072371913062"></trkpt>
      <trkpt lat="39.77863497021829" lon="-75.50962230917108"></trkpt>
      <trkpt lat="39.77598646966968" lon="-75.52024933962178"></trkpt>
      <trkpt lat="39.773457285611535" lon="-75.53047428894888"></trkpt>
      <trkpt lat="39.76767198755707" lon="-75.53856654806194"></trkpt>
      <trkpt lat="39.7638955143753" lon="-75.54811906599774"></trkpt>
      <trkpt lat="39.756319080812524" lon="-75.55274066799711"></trkpt>
      <trkpt lat="39.7486358346833" lon="-75.55722323612943"></trkpt>
      <trkpt lat="39.740988577974" lon="-75.56235583616899"></trkpt>
      <trkpt lat="39.733095201718704" lon="-75.56595745444147"></trkpt>
      <trkpt lat="39.7259008168776" lon="-75.5716217175304"></trkpt>
      <trkpt lat="39.71950593937498" lon="-75.57910107072918"></trkpt>
      <trkpt lat="39.71364824437146" lon="-75.58723292474588"></trkpt>
      <trkpt lat="39.708417552573586" lon="-75.59609898127671"></trkpt>
      <trkpt lat="39.70324311375066" lon="-75.60501997950388"></trkpt>
      <trkpt lat="39.69803438140948" lon="-75.61390664052965"></trkpt>
      <trkpt lat="39.69424850567102" lon="-75.6238864299951"></trkpt>
      <trkpt lat="39.69100715499758" lon="-75.63422135195002"></trkpt>
      <trkpt lat="39.68776451757503" lon="-75.64455530736264"></trkpt>
      <trkpt lat="39.68452215022643" lon="-75.6548885540144"></trkpt>
      <trkpt lat="39.68037051484601" lon="-75.66462332062332"></trkpt>
      <trkpt lat="39.67439932288241" lon="-75.6726325337828"></trkpt>
      <trkpt lat="39.669056663981905" lon="-75.68130762992018"></trkpt>
      <trkpt lat="39.66404363266181" lon="-75.69035942225993"></trkpt>
      <trkpt lat="39.65788160345403" lon="-75.69814637982968"></trkpt>
      <trkpt lat="39.65389190395683" lon="-75.70787812951912"></trkpt>
      <trkpt lat="39.65171624252427" lon="-75.71866472049602"></trkpt>
      <trkpt lat="39.64945605621349" lon="-75.72942178326723"></trkpt>
      <trkpt lat="39.647309496698654" lon="-75.74021663747008"></trkpt>
      <trkpt lat="39.646978488564734" lon="-75.75133682763035"></trkpt>
      <trkpt lat="39.64586638895291" lon="-75.76227547649718"></trkpt>
      <trkpt lat="39.64276377812909" lon="-75.7726551193209"></trkpt>
      <trkpt lat="39.63960786276433" lon="-75.7830250345174"></trkpt>
      <trkpt lat="39.63967276394906" lon="-75.79400707418147"></trkpt>
      <trkpt lat="39.64158470243887" lon="-75.80487508615938"></trkpt>
      <trkpt lat="39.64259112332115" lon="-75.81592130008858"></trkpt>
      <trkpt lat="39.643132448755644" lon="-75.82703554737137"></trkpt>
      <trkpt lat="39.64596372073222" lon="-75.8375490773288"></trkpt>
      <trkpt lat="39.64603324069726" lon="-75.84855589456056"></trkpt>
      <trkpt lat="39.64335449023478" lon="-75.85914915602419"></trkpt>
      <trkpt lat="39.64184933141413" lon="-75.87002451157556"></trkpt>
      <trkpt lat="39.64412683744832" lon="-75.88072660705376"></trkpt>
      <trkpt lat="39.64366287584613" lon="-75.89174417300895"></trkpt>
      <trkpt lat="39.64170928766516" lon="-75.90260014028898"></trkpt>
      <trkpt lat="39.64305376226971" lon="-75.91326170747298"></trkpt>
      <trkpt lat="39.64575970608366" lon="-75.92370790966827"></trkpt>
      <trkpt lat="39.64320946935409" lon="-75.93431803184204"></trkpt>
      <trkpt lat="39.638958681900924" lon="-75.94400109025516"></trkpt>
      <trkpt lat="39.634065159071824" lon="-75.95317467195045"></trkpt>
      <trkpt lat="39.62920415508549" lon="-75.96237450912527"></trkpt>
      <trkpt lat="39.626898882436514" lon="-75.97300314052363"></trkpt>
      <trkpt lat="39.625491457652295" lon="-75.98397041090236"></trkpt>
      <trkpt lat="39.620719091955685" lon="-75.99313087487403"></trkpt>
      <trkpt lat="39.61549720471445" lon="-76.00192071219125"></trkpt>
      <trkpt lat="39.61168291796486" lon="-76.0118518375708"></trkpt>
      <trkpt lat="39.60773924519117" lon="-76.02153689598282"></trkpt>
      <trkpt lat="39.605725302524775" lon="-76.03236861088637"></trkpt>
      <trkpt lat="39.601734559755094" lon="-76.0421673422347"></trkpt>
      <trkpt lat="39.59828200028004" lon="-76.0523067773827"></trkpt>
      <trkpt lat="39.59549773359813" lon="-76.06284259076978"></trkpt>
      <trkpt lat="39.589890488418064" lon="-76.07125401735794"></trkpt>
      <trkpt lat="39.585748266335" lon="-76.08073493305838"></trkpt>
      <trkpt lat="39.58576070527631" lon="-76.0918667888635"></trkpt>
      <trkpt lat="39.58254276915411" lon="-76.10197188729104"></trkpt>
      <trkpt lat="39.57819843066416" lon="-76.11158940521136"></trkpt>
      <trkpt lat="39.576676098128964" lon="-76.12233521171518"></trkpt>
      <trkpt lat="39.57479749662375" lon="-76.13304219120516"></trkpt>
      <trkpt lat="39.56845948100533" lon="-76.14040997130061"></trkpt>
      <trkpt lat="39.56173833659992" lon="-76.14730192451795"></trkpt>
      <trkpt lat="39.55591558617447" lon="-76.15550878214525"></trkpt>
      <trkpt lat="39.549733406252074" lon="-76.16325902696789"></trkpt>
      <trkpt lat="39.54313748990349" lon="-76.17036742897834"></trkpt>
      <trkpt lat="39.535463729987256" lon="-76.1754073807958"></trkpt>
      <trkpt lat="39.530000565054" lon="-76.18384687233464"></trkpt>
      <trkpt lat="39.52571058145819" lon="-76.19347295870524"></trkpt>
      <trkpt lat="39.51910998107703" lon="-76.20062020079337"></trkpt>
      <trkpt lat="39.51245876310599" lon="-76.20769406516055"></trkpt>
      <trkpt lat="39.506066367025944" lon="-76.21511458720232"></trkpt>
      <trkpt lat="39.50222639077378" lon="-76.22504194339666"></trkpt>
      <trkpt lat="39.49747445289231" lon="-76.23418929913315"></trkpt>
      <trkpt lat="39.4903460770069" lon="-76.24041732921225"></trkpt>
      <trkpt lat="39.485020611941366" lon="-76.24903323016949"></trkpt>
      <trkpt lat="39.48185874340227" lon="-76.2593599076049"></trkpt>
      <trkpt lat="39.47738203408976" lon="-76.26886167659342"></trkpt>
      <trkpt lat="39.4714620705469" lon="-76.27685362648708"></trkpt>
      <trkpt lat="39.46676315673784" lon="-76.28615126867106"></trkpt>
      <trkpt lat="39.46286763407604" lon="-76.29606664907764"></trkpt>
      <trkpt lat="39.4588884514517" lon="-76.3059261430355"></trkpt>
      <trkpt lat="39.45433471264584" lon="-76.31535913758883"></trkpt>
      <trkpt lat="39.44940962524487" lon="-76.32447904301516"></trkpt>
      <trkpt lat="39.44544481273587" lon="-76.33434186913918"></trkpt>
      <trkpt lat="39.44217675495961" lon="-76.34456109287972"></trkpt>
      <trkpt lat="39.44217228762905" lon="-76.3556700320275"></trkpt>
      <trkpt lat="39.44198812064837" lon="-76.36676071462516"></trkpt>
      <trkpt lat="39.437382417922514" lon="-76.37594749308445"></trkpt>
      <trkpt lat="39.43151781889223" lon="-76.38408982055415"></trkpt>
      <trkpt lat="39.42576652506082" lon="-76.39235896086407"></trkpt>
      <trkpt lat="39.42138766842809" lon="-76.40190802244494"></trkpt>
      <trkpt lat="39.41564312310744" lon="-76.4097468043901"></trkpt>
      <trkpt lat="39.40887147343887" lon="-76.41640887874509"></trkpt>
      <trkpt lat="39.402903749796785" lon="-76.42442259931404"></trkpt>
      <trkpt lat="39.39647802055478" lon="-76.43176064525049"></trkpt>
      <trkpt lat="39.38946500417623" lon="-76.43818991732721"></trkpt>
      <trkpt lat="39.382846002879624" lon="-76.44529547855046"></trkpt>
      <trkpt lat="39.37619913224384" lon="-76.45236171091706"></trkpt>
      <trkpt lat="39.37029401304234" lon="-76.46033336611436"></trkpt>
      <trkpt lat="39.3656098910889" lon="-76.46965237848084"></trkpt>
      <trkpt lat="39.36052196695448" lon="-76.478592224985"></trkpt>
      <trkpt lat="39.35574505654297" lon="-76.48782630283256"></trkpt>
      <trkpt lat="39.351061876833676" lon="-76.49714390930038"></trkpt>
      <trkpt lat="39.34639773317218" lon="-76.50647678646027"></trkpt>
      <trkpt lat="39.340584986990066" lon="-76.51433085841839"></trkpt>
      <trkpt lat="39.33300381139446" lon="-76.51950962292211"></trkpt>
      <trkpt lat="39.326246255172414" lon="-76.52639495797983"></trkpt>
      <trkpt lat="39.31947652427897" lon="-76.53325314979482"></trkpt>
      <trkpt lat="39.311095174434975" lon="-76.53241160427761"></trkpt>
      <trkpt lat="39.302627961860075" lon="-76.53057839133774"></trkpt>
      <trkpt lat="39.29408776314052" lon="-76.53182129203083"></trkpt>
      <trkpt lat="39.28573303608081" lon="-76.534392827412"></trkpt>
      <trkpt lat="39.28454322221597" lon="-76.5448803183564"></trkpt>
      <trkpt lat="39.27862309648305" lon="-76.55156819621413"></trkpt>
      <trkpt lat="39.27126040880904" lon="-76.55653093477524"></trkpt>
      <trkpt lat="39.265126769829536" lon="-76.56431303383239"></trkpt>
      <trkpt lat="39.26065203995686" lon="-76.57376402825037"></trkpt>
      <trkpt lat="39.26193782980691" lon="-76.58413872241228"></trkpt>
      <trkpt lat="39.26565304224766" lon="-76.59407767883806"></trkpt>
      <trkpt lat="39.26726923963438" lon="-76.60493977505897"></trkpt>
      <trkpt lat="39.26712979960788" lon="-76.61599891618617"></trkpt>
      <trkpt lat="39.271367387622604" lon="-76.62207901135646"></trkpt>
      <trkpt lat="39.27958345422742" lon="-76.6188152086619"></trkpt>
      <trkpt lat="39.28640581849543" lon="-76.6168200661525"></trkpt>
      <trkpt lat="39.28900596123252" lon="-76.60885607496593"></trkpt>
      <trkpt lat="39.290409" lon="-76.612199"></trkpt>
    </trkseg>
  </trk>
</gpx>