{
"type": "FeatureCollection",
"name": "Washington_to_Baltimore",
"crs": { "type": "name", "properties": { "name": "urn:ogc:def:crs:OGC:1.3:CRS84" } },
"features": [
{ "type": "Feature", "properties": { "route_id": "Washington_to_Baltimore", "minute": 0, "lon": -77.033623, "lat": 38.895095, "distance_km": 0.0, "speed_kmh": 56.37 }, "geometry": { "type": "Point", "coordinates": [ -77.033623, 38.895095 ] } },
{ "type": "Feature", "properties": { "route_id": "Washington_to_Baltimore", "minute": 1, "lon": -77.02568934891832, "lat": 38.897353695263128, "distance_km": 0.9396, "speed_kmh": 56.37 }, "geometry": { "type": "Point", "coordinates": [ -77.02568934891832, 38.897353695263128 ] } },
{ "type": "Feature", "properties": { "route_id": "Washington_to_Baltimore", "minute": 2, "lon": -77.019908457765055, "lat": 38.898916231296944, "distance_km": 1.8791, "speed_kmh": 56.37 }, "geometry": { "type": "Point", "coordinates": [ -77.019908457765055, 38.898916231296944 ] } },
{ "type": "Feature", "properties": { "route_id": "Washington_to_Baltimore", "minute": 3, "lon": -77.015408678936694, "lat": 38.905071731829381, "distance_km": 2.8187, "speed_kmh": 56.37 }, "geometry": { "type": "Point", "coordinates": [ -77.015408678936694, 38.905071731829381 ] } },
{ "type": "Feature", "properties": { "route_id": "Washington_to_Baltimore", "minute": 4, "lon": -77.005518454145175, "lat": 38.908522111469736, "distance_km": 3.7583, "speed_kmh": 56.37 }, "geometry": { "type": "Point", "coordinates": [ -77.005518454145175, 38.908522111469736 ] } },
{ "type": "Feature", "properties": { "route_id": "Washington_to_Baltimore", "minute": 5, "lon": -76.995612483922883, "lat": 38.911946189174685, "distance_km": 4.6979, "speed_kmh": 56.37 }, "geometry": { "type": "Point", "coordinates": [ -76.995612483922883, 38.911946189174685 ] } },
{ "type": "Feature", "properties": { "route_id": "Washington_to_Baltimore", "minute": 6, "lon": -76.98571328254782, "lat": 38.915383766035063, "distance_km": 5.6374, "speed_kmh": 56.37 }, "geometry": { "type": "Point", "coordinates": [ -76.98571328254782, 38.915383766035063 ] } },
{ "type": "Feature", "properties": { "route_id": "Washington_to_Baltimore", "minute": 7, "lon": -76.975334865615991, "lat": 38.917234074477193, "distance_km": 6.577, "speed_kmh": 56.37 }, "geometry": { "type": "Point", "coordinates": [ -76.975334865615991, 38.917234074477193 ] } },
{ "type": "Feature", "properties": { "route_id": "Washington_to_Baltimore", "minute": 8, "lon": -76.96451892810326, "lat": 38.917028407666997, "distance_km": 7.5166, "speed_kmh": 56.37 }, "geometry": { "type": "Point", "coordinates": [ -76.96451892810326, 38.917028407666997 ] } },
{ "type": "Feature", "properties": { "route_id": "Washington_to_Baltimore", "minute": 9, "lon": -76.954278375587336, "lat": 38.918521137707678, "distance_km": 8.4561, "speed_kmh": 56.37 }, "geometry": { "type": "Point", "coordinates": [ -76.954278375587336, 38.918521137707678 ] } },
{ "type": "Feature", "properties": { "route_id": "Washington_to_Baltimore", "minute": 10, "lon": -76.943757830619603, "lat": 38.918022116036852, "distance_km": 9.3957, "speed_kmh": 56.37 }, "geometry": { "type": "Point", "coordinates": [ -76.943757830619603, 38.918022116036852 ] } },
{ "type": "Feature", "properties": { "route_id": "Washington_to_Baltimore", "minute": 11, "lon": -76.933117926756879, "lat": 38.91891806146986, "distance_km": 10.3353, "speed_kmh": 56.37 }, "geometry": { "type": "Point", "coordinates": [ -76.933117926756879, 38.91891806146986 ] } },
{ "type": "Feature", "properties": { "route_id": "Washington_to_Baltimore", "minute": 12, "lon": -76.922655522606078, "lat": 38.916752753548813, "distance_km": 11.2748, "speed_kmh": 56.37 }, "geometry": { "type": "Point", "coordinates": [ -76.922655522606078, 38.916752753548813 ] } },
{ "type": "Feature", "properties": { "route_id": "Washington_to_Baltimore", "minute": 13, "lon": -76.912294105149272, "lat": 38.91873675029408, "distance_km": 12.2144, "speed_kmh": 56.37 }, "geometry": { "type": "Point", "coordinates": [ -76.912294105149272, 38.91873675029408 ] } },
{ "type": "Feature", "properties": { "route_id": "Washington_to_Baltimore", "minute": 14, "lon": -76.903668457643931, "lat": 38.923698920548759, "distance_km": 13.154, "speed_kmh": 56.37 }, "geometry": { "type": "Point", "coordinates": [ -76.903668457643931, 38.923698920548759 ] } },
{ "type": "Feature", "properties": { "route_id": "Washington_to_Baltimore", "minute": 15, "lon": -76.89728220331483, "lat": 38.930489294446311, "distance_km": 14.0936, "speed_kmh": 56.37 }, "geometry": { "type": "Point", "coordinates": [ -76.89728220331483, 38.930489294446311 ] } },
{ "type": "Feature", "properties": { "route_id": "Washington_to_Baltimore", "minute": 16, "lon": -76.889030688095048, "lat": 38.935974969854989, "distance_km": 15.0331, "speed_kmh": 56.37 }, "geometry": { "type": "Point", "coordinates": [ -76.889030688095048, 38.935974969854989 ] } },
{ "type": "Feature", "properties": { "route_id": "Washington_to_Baltimore", "minute": 17, "lon": -76.882284678656845, "lat": 38.942410737698928, "distance_km": 15.9727, "speed_kmh": 56.37 }, "geometry": { "type": "Point", "coordinates": [ -76.882284678656845, 38.942410737698928 ] } },
{ "type": "Feature", "properties": { "route_id": "Washington_to_Baltimore", "minute": 18, "lon": -76.871960222663063, "lat": 38.944271449642024, "distance_km": 16.9123, "speed_kmh": 56.37 }, "geometry": { "type": "Point", "coordinates": [ -76.871960222663063, 38.944271449642024 ] } },
{ "type": "Feature", "properties": { "route_id": "Washington_to_Baltimore", "minute": 19, "lon": -76.861165385540957, "lat": 38.944848332109906, "distance_km": 17.8518, "speed_kmh": 56.37 }, "geometry": { "type": "Point", "coordinates": [ -76.861165385540957, 38.944848332109906 ] } },
{ "type": "Feature", "properties": { "route_id": "Washington_to_Baltimore", "minute": 20, "lon": -76.858479372565256, "lat": 38.948178600114474, "distance_km": 18.7914, "speed_kmh": 56.37 }, "geometry": { "type": "Point", "coordinates": [ -76.858479372565256, 38.948178600114474 ] } },
{ "type": "Feature", "properties": { "route_id": "Washington_to_Baltimore", "minute": 21, "lon": -76.863739935282879, "lat": 38.955487821738856, "distance_km": 19.731, "speed_kmh": 56.37 }, "geometry": { "type": "Point", "coordinates": [ -76.863739935282879, 38.955487821738856 ] } },
{ "type": "Feature", "properties": { "route_id": "Washington_to_Baltimore", "minute": 22, "lon": -76.867114828763846, "lat": 38.963480554735121, "distance_km": 20.6705, "speed_kmh": 56.37 }, "geometry": { "type": "Point", "coordinates": [ -76.867114828763846, 38.963480554735121 ] } },
{ "type": "Feature", "properties": { "route_id": "Washington_to_Baltimore", "minute": 23, "lon": -76.869229916420906, "lat": 38.971780189474494, "distance_km": 21.6101, "speed_kmh": 56.37 }, "geometry": { "type": "Point", "coordinates": [ -76.869229916420906, 38.971780189474494 ] } },
{ "type": "Feature", "properties": { "route_id": "Washington_to_Baltimore", "minute": 24, "lon": -76.874356466943141, "lat": 38.979183877759112, "distance_km": 22.5497, "speed_kmh": 56.37 }, "geometry": { "type": "Point", "coordinates": [ -76.874356466943141, 38.979183877759112 ] } },
{ "type": "Feature", "properties": { "route_id": "Washington_to_Baltimore", "minute": 25, "lon": -76.880614132184149, "lat": 38.986091637166801, "distance_km": 23.4893, "speed_kmh": 56.37 }, "geometry": { "type": "Point", "coordinates": [ -76.880614132184149, 38.986091637166801 ] } },
{ "type": "Feature", "properties": { "route_id": "Washington_to_Baltimore", "minute": 26, "lon": -76.887002391478561, "lat": 38.992923058498825, "distance_km": 24.4288, "speed_kmh": 56.37 }, "geometry": { "type": "Point", "coordinates": [ -76.887002391478561, 38.992923058498825 ] } },
{ "type": "Feature", "properties": { "route_id": "Washington_to_Baltimore", "minute": 27, "lon": -76.892623097661243, "lat": 39.000155991502929, "distance_km": 25.3684, "speed_kmh": 56.37 }, "geometry": { "type": "Point", "coordinates": [ -76.892623097661243, 39.000155991502929 ] } },
{ "type": "Feature", "properties": { "route_id": "Washington_to_Baltimore", "minute": 28, "lon": -76.898708728688831, "lat": 39.007161829318015, "distance_km": 26.308, "speed_kmh": 56.37 }, "geometry": { "type": "Point", "coordinates": [ -76.898708728688831, 39.007161829318015 ] } },
{ "type": "Feature", "properties": { "route_id": "Washington_to_Baltimore", "minute": 29, "lon": -76.905917419019261, "lat": 39.013436366759727, "distance_km": 27.2475, "speed_kmh": 56.37 }, "geometry": { "type": "Point", "coordinates": [ -76.905917419019261, 39.013436366759727 ] } },
{ "type": "Feature", "properties": { "route_id": "Washington_to_Baltimore", "minute": 30, "lon": -76.914738144835454, "lat": 39.018212630612176, "distance_km": 28.1871, "speed_kmh": 56.37 }, "geometry": { "type": "Point", "coordinates": [ -76.914738144835454, 39.018212630612176 ] } },
{ "type": "Feature", "properties": { "route_id": "Washington_to_Baltimore", "minute": 31, "lon": -76.925508234397967, "lat": 39.01834136224489, "distance_km": 29.1267, "speed_kmh": 56.37 }, "geometry": { "type": "Point", "coordinates": [ -76.925508234397967, 39.01834136224489 ] } },
{ "type": "Feature", "properties": { "route_id": "Washington_to_Baltimore", "minute": 32, "lon": -76.935625152044253, "lat": 39.021177551580152, "distance_km": 30.0663, "speed_kmh": 56.37 }, "geometry": { "type": "Point", "coordinates": [ -76.935625152044253, 39.021177551580152 ] } },
{ "type": "Feature", "properties": { "route_id": "Washington_to_Baltimore", "minute": 33, "lon": -76.945821473118087, "lat": 39.023849294308668, "distance_km": 31.0058, "speed_kmh": 56.37 }, "geometry": { "type": "Point", "coordinates": [ -76.945821473118087, 39.023849294308668 ] } },
{ "type": "Feature", "properties": { "route_id": "Washington_to_Baltimore", "minute": 34, "lon": -76.946205326655786, "lat": 39.0312052974921, "distance_km": 31.9454, "speed_kmh": 56.37 }, "geometry": { "type": "Point", "coordinates": [ -76.946205326655786, 39.0312052974921 ] } },
{ "type": "Feature", "properties": { "route_id": "Washington_to_Baltimore", "minute": 35, "lon": -76.938532332526876, "lat": 39.037108894378186, "distance_km": 32.885, "speed_kmh": 56.37 }, "geometry": { "type": "Point", "coordinates": [ -76.938532332526876, 39.037108894378186 ] } },
{ "type": "Feature", "properties": { "route_id": "Washington_to_Baltimore", "minute": 36, "lon": -76.933439851674493, "lat": 39.044580944774765, "distance_km": 33.8245, "speed_kmh": 56.37 }, "geometry": { "type": "Point", "coordinates": [ -76.933439851674493, 39.044580944774765 ] } },
{ "type": "Feature", "properties": { "route_id": "Washington_to_Baltimore", "minute": 37, "lon": -76.929206635907107, "lat": 39.052361318863269, "distance_km": 34.7641, "speed_kmh": 56.37 }, "geometry": { "type": "Point", "coordinates": [ -76.929206635907107, 39.052361318863269 ] } },
{ "type": "Feature", "properties": { "route_id": "Washington_to_Baltimore", "minute": 38, "lon": -76.923865674899105, "lat": 39.059535017501887, "distance_km": 35.7037, "speed_kmh": 56.37 }, "geometry": { "type": "Point", "coordinates": [ -76.923865674899105, 39.059535017501887 ] } },
{ "type": "Feature", "properties": { "route_id": "Washington_to_Baltimore", "minute": 39, "lon": -76.914173914268559, "lat": 39.06333063072168, "distance_km": 36.6432, "speed_kmh": 56.37 }, "geometry": { "type": "Point", "coordinates": [ -76.914173914268559, 39.06333063072168 ] } },
{ "type": "Feature", "properties": { "route_id": "Washington_to_Baltimore", "minute": 40, "lon": -76.907763962509662, "lat": 39.069999560392901, "distance_km": 37.5828, "speed_kmh": 56.37 }, "geometry": { "type": "Point", "coordinates": [ -76.907763962509662, 39.069999560392901 ] } },
{ "type": "Feature", "properties": { "route_id": "Washington_to_Baltimore", "minute": 41, "lon": -76.902543876805169, "lat": 39.077419761906633, "distance_km": 38.5224, "speed_kmh": 56.37 }, "geometry": { "type": "Point", "coordinates": [ -76.902543876805169, 39.077419761906633 ] } },
{ "type": "Feature", "properties": { "route_id": "Washington_to_Baltimore", "minute": 42, "lon": -76.896944435731953, "lat": 39.084670798693281, "distance_km": 39.462, "speed_kmh": 56.37 }, "geometry": { "type": "Point", "coordinates": [ -76.896944435731953, 39.084670798693281 ] } },
{ "type": "Feature", "properties": { "route_id": "Washington_to_Baltimore", "minute": 43, "lon": -76.891833196243908, "lat": 39.092115623202595, "distance_km": 40.4015, "speed_kmh": 56.37 }, "geometry": { "type": "Point", "coordinates": [ -76.891833196243908, 39.092115623202595 ] } },
{ "type": "Feature", "properties": { "route_id": "Washington_to_Baltimore", "minute": 44, "lon": -76.88927860984667, "lat": 39.100339493232397, "distance_km": 41.3411, "speed_kmh": 56.37 }, "geometry": { "type": "Point", "coordinates": [ -76.88927860984667, 39.100339493232397 ] } },
{ "type": "Feature", "properties": { "route_id": "Washington_to_Baltimore", "minute": 45, "lon": -76.883161403300463, "lat": 39.107046179391141, "distance_km": 42.2807, "speed_kmh": 56.37 }, "geometry": { "type": "Point", "coordinates": [ -76.883161403300463, 39.107046179391141 ] } },
{ "type": "Feature", "properties": { "route_id": "Washington_to_Baltimore", "minute": 46, "lon": -76.875727190367854, "lat": 39.113175863447999, "distance_km": 43.2202, "speed_kmh": 56.37 }, "geometry": { "type": "Point", "coordinates": [ -76.875727190367854, 39.113175863447999 ] } },
{ "type": "Feature", "properties": { "route_id": "Washington_to_Baltimore", "minute": 47, "lon": -76.86838325374822, "lat": 39.119379703065846, "distance_km": 44.1598, "speed_kmh": 56.37 }, "geometry": { "type": "Point", "coordinates": [ -76.86838325374822, 39.119379703065846 ] } },
{ "type": "Feature", "properties": { "route_id": "Washington_to_Baltimore", "minute": 48, "lon": -76.863889129517219, "lat": 39.127075342341172, "distance_km": 45.0994, "speed_kmh": 56.37 }, "geometry": { "type": "Point", "coordinates": [ -76.863889129517219, 39.127075342341172 ] } },
{ "type": "Feature", "properties": { "route_id": "Washington_to_Baltimore", "minute": 49, "lon": -76.856657006659461, "lat": 39.133249089770956, "distance_km": 46.0389, "speed_kmh": 56.37 }, "geometry": { "type": "Point", "coordinates": [ -76.856657006659461, 39.133249089770956 ] } },
{ "type": "Feature", "properties": { "route_id": "Washington_to_Baltimore", "minute": 50, "lon": -76.848368201254715, "lat": 39.138506288650305, "distance_km": 46.9785, "speed_kmh": 56.37 }, "geometry": { "type": "Point", "coordinates": [ -76.848368201254715, 39.138506288650305 ] } },
{ "type": "Feature", "properties": { "route_id": "Washington_to_Baltimore", "minute": 51, "lon": -76.843100624609221, "lat": 39.145908801486279, "distance_km": 47.9181, "speed_kmh": 56.37 }, "geometry": { "type": "Point", "coordinates": [ -76.843100624609221, 39.145908801486279 ] } },
{ "type": "Feature", "properties": { "route_id": "Washington_to_Baltimore", "minute": 52, "lon": -76.837519080555694, "lat": 39.153148671677094, "distance_km": 48.8577, "speed_kmh": 56.37 }, "geometry": { "type": "Point", "coordinates": [ -76.837519080555694, 39.153148671677094 ] } },
{ "type": "Feature", "properties": { "route_id": "Washington_to_Baltimore", "minute": 53, "lon": -76.828005650424288, "lat": 39.157006657741931, "distance_km": 49.7972, "speed_kmh": 56.37 }, "geometry": { "type": "Point", "coordinates": [ -76.828005650424288, 39.157006657741931 ] } },
{ "type": "Feature", "properties": { "route_id": "Washington_to_Baltimore", "minute": 54, "lon": -76.81839274942385, "lat": 39.1608215147889, "distance_km": 50.7368, "speed_kmh": 56.37 }, "geometry": { "type": "Point", "coordinates": [ -76.81839274942385, 39.1608215147889 ] } },
{ "type": "Feature", "properties": { "route_id": "Washington_to_Baltimore", "minute": 55, "lon": -76.809701764619973, "lat": 39.165905748668578, "distance_km": 51.6764, "speed_kmh": 56.37 }, "geometry": { "type": "Point", "coordinates": [ -76.809701764619973, 39.165905748668578 ] } },
{ "type": "Feature", "properties": { "route_id": "Washington_to_Baltimore", "minute": 56, "lon": -76.801010406420616, "lat": 39.170990229938312, "distance_km": 52.6159, "speed_kmh": 56.37 }, "geometry": { "type": "Point", "coordinates": [ -76.801010406420616, 39.170990229938312 ] } },
{ "type": "Feature", "properties": { "route_id": "Washington_to_Baltimore", "minute": 57, "lon": -76.79231986751563, "lat": 39.176076089088134, "distance_km": 53.5555, "speed_kmh": 56.37 }, "geometry": { "type": "Point", "coordinates": [ -76.79231986751563, 39.176076089088134 ] } },
{ "type": "Feature", "properties": { "route_id": "Washington_to_Baltimore", "minute": 58, "lon": -76.783628667669063, "lat": 39.18116191309872, "distance_km": 54.4951, "speed_kmh": 56.37 }, "geometry": { "type": "Point", "coordinates": [ -76.783628667669063, 39.18116191309872 ] } },
{ "type": "Feature", "properties": { "route_id": "Washington_to_Baltimore", "minute": 59, "lon": -76.776434411798462, "lat": 39.187375592006696, "distance_km": 55.4347, "speed_kmh": 56.37 }, "geometry": { "type": "Point", "coordinates": [ -76.776434411798462, 39.187375592006696 ] } },
{ "type": "Feature", "properties": { "route_id": "Washington_to_Baltimore", "minute": 60, "lon": -76.769755735775462, "lat": 39.194052240009476, "distance_km": 56.3742, "speed_kmh": 56.37 }, "geometry": { "type": "Point", "coordinates": [ -76.769755735775462, 39.194052240009476 ] } },
{ "type": "Feature", "properties": { "route_id": "Washington_to_Baltimore", "minute": 61, "lon": -76.762014397067333, "lat": 39.19995726815042, "distance_km": 57.3138, "speed_kmh": 56.37 }, "geometry": { "type": "Point", "coordinates": [ -76.762014397067333, 39.19995726815042 ] } },
{ "type": "Feature", "properties": { "route_id": "Washington_to_Baltimore", "minute": 62, "lon": -76.752869068712272, "lat": 39.204539214768161, "distance_km": 58.2534, "speed_kmh": 56.37 }, "geometry": { "type": "Point", "coordinates": [ -76.752869068712272, 39.204539214768161 ] } },
{ "type": "Feature", "properties": { "route_id": "Washington_to_Baltimore", "minute": 63, "lon": -76.743710845090916, "lat": 39.209106213019453, "distance_km": 59.1929, "speed_kmh": 56.37 }, "geometry": { "type": "Point", "coordinates": [ -76.743710845090916, 39.209106213019453 ] } },
{ "type": "Feature", "properties": { "route_id": "Washington_to_Baltimore", "minute": 64, "lon": -76.73455178039795, "lat": 39.213672230120061, "distance_km": 60.1325, "speed_kmh": 56.37 }, "geometry": { "type": "Point", "coordinates": [ -76.73455178039795, 39.213672230120061 ] } },
{ "type": "Feature", "properties": { "route_id": "Washington_to_Baltimore", "minute": 65, "lon": -76.725931997940776, "lat": 39.218797861744022, "distance_km": 61.0721, "speed_kmh": 56.37 }, "geometry": { "type": "Point", "coordinates": [ -76.725931997940776, 39.218797861744022 ] } },
{ "type": "Feature", "properties": { "route_id": "Washington_to_Baltimore", "minute": 66, "lon": -76.718028008227094, "lat": 39.224602465312785, "distance_km": 62.0116, "speed_kmh": 56.37 }, "geometry": { "type": "Point", "coordinates": [ -76.718028008227094, 39.224602465312785 ] } },
{ "type": "Feature", "properties": { "route_id": "Washington_to_Baltimore", "minute": 67, "lon": -76.712796909094052, "lat": 39.232012377544351, "distance_km": 62.9512, "speed_kmh": 56.37 }, "geometry": { "type": "Point", "coordinates": [ -76.712796909094052, 39.232012377544351 ] } },
{ "type": "Feature", "properties": { "route_id": "Washington_to_Baltimore", "minute": 68, "lon": -76.705597109547583, "lat": 39.238222678404206, "distance_km": 63.8908, "speed_kmh": 56.37 }, "geometry": { "type": "Point", "coordinates": [ -76.705597109547583, 39.238222678404206 ] } },
{ "type": "Feature", "properties": { "route_id": "Washington_to_Baltimore", "minute": 69, "lon": -76.695293408203938, "lat": 39.24059311488606, "distance_km": 64.8304, "speed_kmh": 56.37 }, "geometry": { "type": "Point", "coordinates": [ -76.695293408203938, 39.24059311488606 ] } },
{ "type": "Feature", "properties": { "route_id": "Washington_to_Baltimore", "minute": 70, "lon": -76.686870274628888, "lat": 39.245937513507975, "distance_km": 65.7699, "speed_kmh": 56.37 }, "geometry": { "type": "Point", "coordinates": [ -76.686870274628888, 39.245937513507975 ] } },
{ "type": "Feature", "properties": { "route_id": "Washington_to_Baltimore", "minute": 71, "lon": -76.678248307552096, "lat": 39.250997344056351, "distance_km": 66.7095, "speed_kmh": 56.37 }, "geometry": { "type": "Point", "coordinates": [ -76.678248307552096, 39.250997344056351 ] } },
{ "type": "Feature", "properties": { "route_id": "Washington_to_Baltimore", "minute": 72, "lon": -76.674543704335065, "lat": 39.258939499206981, "distance_km": 67.6491, "speed_kmh": 56.37 }, "geometry": { "type": "Point", "coordinates": [ -76.674543704335065, 39.258939499206981 ] } },
{ "type": "Feature", "properties": { "route_id": "Washington_to_Baltimore", "minute": 73, "lon": -76.66788216043885, "lat": 39.265319586296975, "distance_km": 68.5886, "speed_kmh": 56.37 }, "geometry": { "type": "Point", "coordinates": [ -76.66788216043885, 39.265319586296975 ] } },
{ "type": "Feature", "properties": { "route_id": "Washington_to_Baltimore", "minute": 74, "lon": -76.658435119563023, "lat": 39.269526188907747, "distance_km": 69.5282, "speed_kmh": 56.37 }, "geometry": { "type": "Point", "coordinates": [ -76.658435119563023, 39.269526188907747 ] } },
{ "type": "Feature", "properties": { "route_id": "Washington_to_Baltimore", "minute": 75, "lon": -76.648114463257372, "lat": 39.271050677737925, "distance_km": 70.4678, "speed_kmh": 56.37 }, "geometry": { "type": "Point", "coordinates": [ -76.648114463257372, 39.271050677737925 ] } },
{ "type": "Feature", "properties": { "route_id": "Washington_to_Baltimore", "minute": 76, "lon": -76.637322141588555, "lat": 39.269949467884025, "distance_km": 71.4073, "speed_kmh": 56.37 }, "geometry": { "type": "Point", "coordinates": [ -76.637322141588555, 39.269949467884025 ] } },
{ "type": "Feature", "properties": { "route_id": "Washington_to_Baltimore", "minute": 77, "lon": -76.62690330797453, "lat": 39.267569792130907, "distance_km": 72.3469, "speed_kmh": 56.37 }, "geometry": { "type": "Point", "coordinates": [ -76.62690330797453, 39.267569792130907 ] } },
{ "type": "Feature", "properties": { "route_id": "Washington_to_Baltimore", "minute": 78, "lon": -76.621023381765909, "lat": 39.273696750774555, "distance_km": 73.2865, "speed_kmh": 56.37 }, "geometry": { "type": "Point", "coordinates": [ -76.621023381765909, 39.273696750774555 ] } },
{ "type": "Feature", "properties": { "route_id": "Washington_to_Baltimore", "minute": 79, "lon": -76.618895069716004, "lat": 39.281896254888132, "distance_km": 74.2261, "speed_kmh": 56.37 }, "geometry": { "type": "Point", "coordinates": [ -76.618895069716004, 39.281896254888132 ] } },
{ "type": "Feature", "properties": { "route_id": "Washington_to_Baltimore", "minute": 80, "lon": -76.614043749747665, "lat": 39.28651835829254, "distance_km": 75.1656, "speed_kmh": 56.37 }, "geometry": { "type": "Point", "coordinates": [ -76.614043749747665, 39.28651835829254 ] } },
{ "type": "Feature", "properties": { "route_id": "Washington_to_Baltimore", "minute": 81, "lon": -76.609543610666961, "lat": 39.29055287768589, "distance_km": 76.1052, "speed_kmh": 56.37 }, "geometry": { "type": "Point", "coordinates": [ -76.609543610666961, 39.29055287768589 ] } },
{ "type": "Feature", "properties": { "route_id": "Washington_to_Baltimore", "minute": 82, "lon": -76.612199, "lat": 39.290409, "distance_km": 76.3354, "speed_kmh": 13.81 }, "geometry": { "type": "Point", "coordinates": [ -76.612199, 39.290409 ] } }
]
}
